id,category,satellite_name,tle_line1,tle_line2,inclination,eccentricity,period,perigee,apogee,epoch,raan,arg_perigee,mean_anomaly,mean_motion,semi_major_axis,velocity,orbit_type,satellite_age,bstar,rev_num,norad_number,ephemeris_type,intl_designator
10758,active,STARLINK-32731,1 62493U 25003G   25017.42778478 -.00596432  00000+0 -27850-2 0  9990,2 62493  43.0023 129.0355 0002476 293.6517  66.4095 15.83780771  2903,43.0023,0.0002476,90.92167466402456,318.2385918833743,321.55539047340517,2025-01-17 10:16:00.604992,129.0355,293.6517,15.83780771,15.83780771,6697.89699117839,7.714355628894226,LEO,2,-0.002785,290,62493,0,25003G
10770,active,STARLINK-32725,1 62505U 25003U   25017.41961841  .00034126  00000+0  13612-3 0  9998,2 62505  43.0035 128.9690 0003238 295.7447  64.3091 15.85930993  2786,43.0035,0.0003238,90.79840209667937,311.6747510135983,316.00838761388695,2025-01-17 10:04:15.030624,128.969,295.7447,15.85930993,15.85930993,6691.841569313742,7.717845185116132,LEO,2,0.00013612,278,62505,0,25003U
10630,active,HULIANGWANG DIGUI-04,1 62326U 24240D   25017.57708219  .00000087  00000+0  13693-3 0  9994,2 62326  86.5028 157.7216 0011432 202.9919 157.0713 13.37561080  4307,86.5028,0.0011432,107.65863492379727,1109.945181850634,1127.0852141993992,2025-01-17 13:50:59.901216,157.7216,202.9919,13.3756108,13.3756108,7496.515198025017,7.291874324281085,LEO,2,0.00013693,430,62326,0,24240D
10646,active,TIANQI 35,1 62367U 24245C   25017.58952245  .00000083  00000+0  11916-3 0  9997,2 62367  44.9851  95.6942 0009871 101.8145 258.3800 14.10956806  4131,44.9851,0.0009871,102.05840418902235,849.0954678915941,863.3772973581708,2025-01-17 14:08:54.73968,95.6942,101.8145,14.10956806,14.10956806,7234.236382624883,7.422881716464243,LEO,2,0.00011916,413,62367,0,24245C
10662,active,LASARSAT,1 62391U 24247Q   25017.56601084  .00020129  00000+0  95341-3 0  9993,2 62391  44.9914 215.0754 0004807 245.8722 114.1655 15.19063566  4264,44.9914,0.0004807,94.79524308464653,505.49594258224624,512.1169182844651,2025-01-17 13:35:03.336576,215.0754,245.87220000000002,15.19063566,15.19063566,6886.806430433356,7.607815112700377,LEO,2,0.00095341,426,62391,0,24247Q
10677,active,STRIX-2,1 62406U 24248A   25017.57324532  .00010074  00000+0  80454-3 0  9999,2 62406  97.5690 336.4888 0017429 277.5464  82.3780 15.00335268  4043,97.569,0.0017429,95.97854764285924,553.8959775535923,578.1013681273789,2025-01-17 13:45:28.395648,336.4888,277.5464,15.00335268,15.00335268,6943.998672840486,7.576420548443254,LEO,2,0.0008045400000000001,404,62406,0,24248A
10689,active,STARLINK-11434 [DTC],1 62420U 24249M   25017.58334491 -.00007835  00000+0 -42208-4 0  9991,2 62420  43.0005 157.0830 0002239 277.6752  88.4493 15.77845569  4023,43.0005,0.0002239,91.26368437391734,335.1795385909436,338.18637361868787,2025-01-17 14:00:01.000224,157.083,277.6752,15.77845569,15.77845569,6714.682956104816,7.704707077006956,LEO,2,-4.2208e-05,402,62420,0,24249M
10711,active,STARLINK-32736,1 62443U 24251M   25017.58334491 -.01388584  00000+0 -13048-1 0  9990,2 62443  53.1589 119.1728 0001153  57.5147 342.2535 15.69490140  3949,53.1589,0.0001153,91.74954103247822,359.7160307855447,361.2699272665086,2025-01-17 14:00:01.000224,119.1728,57.5147,15.6949014,15.6949014,6738.492979026027,7.691082992876878,LEO,2,-0.013048000000000002,394,62443,0,24251M
10720,active,STARLINK-32656,1 62452U 24251W   25017.58334491 -.01387259  00000+0 -13034-1 0  9993,2 62452  53.1589 119.1364 0001271  58.8915 358.1264 15.69488824  3944,53.1589,0.0001271,91.74961796351091,359.64028285980294,361.3532087325848,2025-01-17 14:00:01.000224,119.13640000000001,58.8915,15.69488824,15.69488824,6738.496745796194,7.691080843247138,LEO,2,-0.013034000000000002,394,62452,0,24251W
10736,active,STARLINK-11505 [DTC],1 62469U 24254H   25017.58334491  .00015302  00000+0  67219-4 0  9995,2 62469  42.9942 213.9227 0001680 251.7648 244.1017 15.84377067  3935,42.9942,0.000168,90.88745539132447,317.09137482400365,319.3413035139638,2025-01-17 14:00:01.000224,213.9227,251.7648,15.84377067,15.84377067,6696.216339168984,7.7153236631705235,LEO,2,6.7219e-05,393,62469,0,24254H
10787,active,STARLINK-11516 [DTC],1 62522U 25004M   25017.58334491 -.00859761  00000+0 -29785-2 0  9990,2 62522  43.0069  61.5331 0001632 280.4840 178.4148 15.90389783  2376,43.0069,0.0001632,90.54384122637438,300.23822852424655,302.4183612797033,2025-01-17 14:00:01.000224,61.5331,280.484,15.90389783,15.90389783,6679.328294901975,7.725071235460309,LEO,2,-0.0029785000000000002,237,62522,0,25004M
10800,active,STARLINK-11478 [DTC],1 62557U 25006D   25017.75002315 -.00952904  00000+0 -41001-2 0  9994,2 62557  43.0067 132.5039 0001777 287.1640 124.3641 15.86312244  2201,43.0067,0.0001777,90.77657979673263,311.58037442097975,313.9582738387762,2025-01-17 18:00:02.00016,132.5039,287.164,15.86312244,15.86312244,6690.7693241298775,7.7184635811783675,LEO,2,-0.0041001,220,62557,0,25006D
10818,active,CENTISPACE-1 S7,1 62576U 25007B   25016.35404957  .00000744  00000+0  13875-3 0  9992,2 62576  54.9797 115.0461 0012874 306.6240  53.3575 14.75597554   471,54.9797,0.0012874,97.58758382978452,634.3527156105692,652.4313958756966,2025-01-16 08:29:49.882848,115.0461,306.624,14.75597554,14.75597554,7021.392055743133,7.534549251255598,LEO,3,0.00013875,47,62576,0,25007B
13,active,OSCAR 7 (AO-7),1 07530U 74089B   25017.57977112 -.00000042  00000+0  25129-4 0  9996,2 07530 101.9916  20.3319 0012324  35.9952  81.8906 12.53685079295900,101.9916,0.0012324,114.8613813884276,1439.6096616300547,1458.9022821495682,2025-01-17 13:54:52.224768,20.3319,35.9952,81.8906,12.53685079,7827.255971889812,7.136152453741766,LEO,2,2.5129000000000003e-05,29590,7530,0,74089B
56,active,CELESTIS-02 & TAURUS R/B,1 25160U 98007D   25017.61209824  .00000259  00000+0  17124-3 0  9998,2 25160 108.0093  11.6327 0063891 293.5618 167.8675 14.22239891397200,108.0093,0.0063891,101.24874215048999,771.9491211349823,863.9000848972437,2025-01-17 14:41:25.287936,11.6327,293.5618,167.8675,14.22239891,7195.924603016113,7.442615545458765,LEO,2,0.00017124,39720,25160,0,98007D
90,active,INTELSAT 1R (IS-1R),1 26608U 00072A   25017.19841178  .00000076  00000+0  00000+0 0  9996,2 26608   6.7871  70.4151 0009667 240.0297 301.5858  0.98970811 36128,6.7871,0.0009667,1454.9744368569436,36114.31442722563,36196.54856367894,2025-01-17 04:45:42.777792,70.4151,240.02970000000002,0.98970811,0.98970811,42533.431495452285,3.0612843894524917,HEO,2,0,3612,26608,0,00072A
107,active,INTELSAT 904 (IS-904),1 27380U 02007A   25017.03085000 -.00000214  00000+0  00000+0 0  9996,2 27380   5.6225  75.3602 0003249 232.2148 150.7098  1.00272833 46595,5.6225,0.0003249,1436.081894684276,35772.73894534412,35800.13739726784,2025-01-17 00:44:25.44,75.3602,232.2148,1.00272833,1.00272833,42164.43817130598,3.0746503081761514,GEO,2,0,4659,27380,0,02007A
5910,active,STARLINK-5726,1 55608U 23020AR  25017.24656659  .00000831  00000+0  76565-4 0  9993,2 55608  43.0040  94.6574 0001219 265.6895  94.3808 15.02536916106429,43.004,0.0001219,95.83791151258477,558.3680675875012,560.0593602909594,2025-01-17 05:55:03.353376,94.6574,265.6895,94.3808,15.02536916,6937.213713939231,7.580124711305591,LEO,2,7.656500000000001e-05,10642,55608,0,23020AR
129,active,THURAYA-2,1 27825U 03026A   25017.20952060  .00000127  00000+0  00000+0 0  9992,2 27825   8.0331  33.7384 0006197 307.3935 255.1599  1.00271536 79177,8.0331,0.0006197,1436.100470227164,35760.67223742028,35812.93129272791,2025-01-17 05:01:42.57984,33.7384,307.3935,1.00271536,1.00271536,42164.801765074095,3.074637051549126,GEO,2,0,7917,27825,0,03026A
146,active,UFO 11 (USA 174),1 28117U 03057A   25017.05170131 -.00000101  00000+0  00000+0 0  9998,2 28117   8.4060  36.0563 0004110 249.8376 284.6920  1.00273322 77271,8.406,0.000411,1436.0748913853677,35768.97156205182,35803.630617547635,2025-01-17 01:14:26.993184,36.0563,249.8376,1.00273322,1.00273322,42164.30108979973,3.0746553062117163,GEO,2,0,7727,28117,0,03057A
169,active,JB-3 3 (ZY 2C),1 28470U 04044A   25017.33141460  .00007062  00000+0  39129-3 0  9991,2 28470  97.2171 188.7579 0036332 220.3210 139.5328 15.13525615109591,97.2171,0.0036332,95.14209642233243,500.51315753480867,550.6774424225732,2025-01-17 07:57:14.22144,188.7579,220.321,139.5328,15.13525615,6903.595299978691,7.5985587499552825,LEO,2,0.00039129000000000003,10959,28470,0,04044A
209,active,ARIRANG-2 (KOMPSAT-2),1 29268U 06031A   25017.34430091  .00000693  00000+0  14060-3 0  9997,2 29268  97.8436 221.6349 0013282 270.2088 141.0786 14.64057564985973,97.8436,0.0013282,98.35678838103391,670.864996966553,689.6145050411187,2025-01-17 08:15:47.598624,221.6349,270.2088,141.0786,14.64057564,7058.239751003836,7.514856376130904,LEO,2,0.0001406,98597,29268,0,06031A
250,active,BSAT-3A,1 32019U 07036B   25016.34412116 -.00000349  00000+0  00000+0 0  9992,2 32019   0.0608 238.3262 0003523  36.4211  74.9723  1.00270406 45345,0.0608,0.0003523,1436.1166543995046,35772.263778115404,35801.9733206453,2025-01-16 08:15:32.068224,238.32620000000003,36.4211,1.00270406,1.00270406,42165.11854938035,3.074625501734631,GEO,3,0,4534,32019,0,07036B
5935,active,STARLINK-5062,1 55637U 23021K   25017.54148528 -.00001662  00000+0 -13158-3 0  9993,2 55637  70.0009 153.8241 0002650 263.2225  96.8632 14.98316888106459,70.0009,0.000265,96.10784017272587,570.3916271571625,574.0752508798423,2025-01-17 12:59:44.328192,153.82410000000002,263.2225,96.8632,14.98316888,6950.233439018502,7.573021539662448,LEO,2,-0.00013158,10645,55637,0,23021K
332,active,DEIMOS-1,1 35681U 09041A   25017.54437363  .00001287  00000+0  20205-3 0  9996,2 35681  97.6853 194.2220 0002609  71.9715 288.1778 14.74178397830889,97.6853,0.0002609,97.68152911007553,646.0644961137868,649.7306094568312,2025-01-17 13:03:53.881632,194.222,71.9715,288.1778,14.74178397,7025.897552785309,7.532133023781715,LEO,2,0.00020205,83088,35681,0,09041A
